[{"OBJECT_NAME":"STARLINK-31582","OBJECT_ID":"2024-074M","EPOCH":"2026-03-08T19:03:00.463968","MEAN_MOTION":15.27571925,"ECCENTRICITY":6.456e-5,"INCLINATION":42.9994,"RA_OF_ASC_NODE":348.9022,"ARG_OF_PERICENTER":357.187,"MEAN_ANOMALY":2.8978,"EPHEMERIS_TYPE":0,"CLASSIFICATION_TYPE":"U","NORAD_CAT_ID":59545,"ELEMENT_SET_NO":999,"REV_AT_EPOCH":10587,"BSTAR":-4.4703632e-5,"MEAN_MOTION_DOT":-1.491e-5,"MEAN_MOTION_DDOT":0},{"OBJECT_NAME":"FENGYUN 1C DEB","OBJECT_ID":"1999-025EJQ","EPOCH":"2026-03-08T21:27:56.444256","MEAN_MOTION":15.23229897,"ECCENTRICITY":0.00101559,"INCLINATION":98.6645,"RA_OF_ASC_NODE":227.592,"ARG_OF_PERICENTER":263.6857,"MEAN_ANOMALY":96.3219,"EPHEMERIS_TYPE":0,"CLASSIFICATION_TYPE":"U","NORAD_CAT_ID":37470,"ELEMENT_SET_NO":999,"REV_AT_EPOCH":66762,"BSTAR":0.011057202,"MEAN_MOTION_DOT":0.00271626,"MEAN_MOTION_DDOT":0}]
